{
"type": "FeatureCollection",
"name": "inspection_zones",
"crs": { "type": "name", "properties": { "name": "urn:ogc:def:crs:OGC:1.3:CRS84" } },
"features": [
{ "type": "Feature", "properties": { "name": "Mathare Valley", "lat": -1.2588, "lon": 36.8572, "zone": "Nairobi North Corridor", "zone_summary": "Nairobi North Corridor", "hazard_score_mean": 0.5562017560005188, "hazard_score_max": 0.93924826383590698, "planning_priority_score_mean": 0.46539843082427979, "planning_priority_score_max": 0.93216425180435181, "built_density_mean": 0.65483862161636353, "built_density_max": 1.0, "high_hazard_area_ha": 83.25, "high_hazard_built_area_ha": 82.44 }, "geometry": { "type": "Polygon", "coordinates": [ [ [ 36.866182600964208, -1.258807415953422 ], [ 36.86613862620311, -1.259693548760841 ], [ 36.866008566751717, -1.260571076194214 ], [ 36.865793675113316, -1.261431547028516 ], [ 36.865496020805018, -1.262266674306541 ], [ 36.86511847042744, -1.26306841515266 ], [ 36.864664660056768, -1.263829048235567 ], [ 36.864138960225148, -1.26454124813397 ], [ 36.863546433826599, -1.26519815588843 ], [ 36.86289278735412, -1.265793445060311 ], [ 36.862184315937697, -1.26632138266102 ], [ 36.861427842712772, -1.266776884364928 ], [ 36.860630653103229, -1.267155563474163 ], [ 36.859800424652114, -1.267453773163741 ], [ 36.858945153076149, -1.26766864160004 ], [ 36.858073075256314, -1.267798099594831 ], [ 36.857192589906404, -1.267840900528336 ], [ 36.856312176683964, -1.26779663234986 ], [ 36.855440314522546, -1.267665721540441 ], [ 36.854585399972073, -1.267449428999703 ], [ 36.853755666333925, -1.267149837896611 ], [ 36.852959104369397, -1.266769833601558 ], [ 36.852203385345383, -1.266313075893013 ], [ 36.851495787158129, -1.265783963706946 ], [ 36.85084312424668, -1.265187592768384 ], [ 36.850251681970605, -1.264529706513465 ], [ 36.849727156084036, -1.263816640774772 ], [ 36.849274597888531, -1.263055262762758 ], [ 36.848898365592845, -1.262252904930698 ], [ 36.848602082347718, -1.261417294360585 ], [ 36.848388601359623, -1.260556478349413 ], [ 36.848259978419065, -1.259678746912796 ], [ 36.848217452107995, -1.258792552951978 ], [ 36.848261431876445, -1.257906430852844 ], [ 36.848391494103225, -1.257028914300794 ], [ 36.848606386178382, -1.25616845410269 ], [ 36.848904038568044, -1.255333336806995 ], [ 36.849281584745306, -1.254531604905722 ], [ 36.849735388795409, -1.253770979386431 ], [ 36.850261080429092, -1.25305878537975 ], [ 36.850853597067385, -1.252401881618703 ], [ 36.851507232592375, -1.251806594388458 ], [ 36.852215692294763, -1.251278656602995 ], [ 36.852972153489297, -1.250823152595042 ], [ 36.853769331214409, -1.250444469151015 ], [ 36.854599548383732, -1.25014625326248 ], [ 36.855454809714139, -1.249931377001283 ], [ 36.85632687871837, -1.249801909856358 ], [ 36.857207357021395, -1.249759098799119 ], [ 36.858087765236476, -1.24980335626931 ], [ 36.858959624622514, -1.249934256197405 ], [ 36.859814538736217, -1.250150538101944 ], [ 36.860644274293016, -1.250450119222707 ], [ 36.86144084045786, -1.250830114572914 ], [ 36.862196565802449, -1.251286864717842 ], [ 36.862904172187633, -1.251815971012188 ], [ 36.863556844859339, -1.252412337957339 ], [ 36.86414829808291, -1.253070222270621 ], [ 36.8646728356835, -1.253783288194068 ], [ 36.865125405909403, -1.254544668510127 ], [ 36.865501650089534, -1.25534703067698 ], [ 36.865797944616425, -1.256182647446049 ], [ 36.866011435850091, -1.257043471282119 ], [ 36.866140067606253, -1.25792121186887 ], [ 36.866182600964208, -1.258807415953422 ] ] ] } },
{ "type": "Feature", "properties": { "name": "Korogocho", "lat": -1.2515, "lon": 36.8925, "zone": "Nairobi North Corridor", "zone_summary": "Nairobi North Corridor", "hazard_score_mean": 0.56387639045715332, "hazard_score_max": 0.91372400522232056, "planning_priority_score_mean": 0.49950256943702698, "planning_priority_score_max": 0.85106432437896729, "built_density_mean": 0.76057499647140503, "built_density_max": 1.0, "high_hazard_area_ha": 60.03, "high_hazard_built_area_ha": 59.94 }, "geometry": { "type": "Polygon", "coordinates": [ [ [ 36.901482782367736, -1.25150725129214 ], [ 36.901438822768348, -1.252393405252493 ], [ 36.901308776598469, -1.253270955222554 ], [ 36.901093896233235, -1.2541314497627 ], [ 36.900796251080465, -1.254966601689726 ], [ 36.900418707651426, -1.255768367892689 ], [ 36.899964901953801, -1.256529026797845 ], [ 36.899439204472777, -1.257241252736601 ], [ 36.89884667807754, -1.257898186499686 ], [ 36.898193029258636, -1.258493501398474 ], [ 36.897484553166166, -1.259021464196606 ], [ 36.896728072978092, -1.259476990325301 ], [ 36.895930874182923, -1.25985569285051 ], [ 36.895100634409992, -1.260153924720354 ], [ 36.894245349483079, -1.260368813885842 ], [ 36.893373256410129, -1.26049829095704 ], [ 36.892492754050664, -1.260541109128152 ], [ 36.891612322225313, -1.260496856180034 ], [ 36.890740440046493, -1.260365958444555 ], [ 36.889885504257165, -1.260149676692989 ], [ 36.889055748363972, -1.259850093988094 ], [ 36.888259163343719, -1.259470095617313 ], [ 36.887503420686926, -1.259013341300301 ], [ 36.886795798519387, -1.258484229938983 ], [ 36.88614311151327, -1.257887857249491 ], [ 36.88555164526263, -1.257229966684341 ], [ 36.885027095754971, -1.256516894117627 ], [ 36.884574514521837, -1.255755506826046 ], [ 36.884198259996275, -1.254953137353195 ], [ 36.883901955545319, -1.254117512894559 ], [ 36.883688454581602, -1.253256680882646 ], [ 36.883559813089633, -1.252378931489238 ], [ 36.883517269831195, -1.251492717790814 ], [ 36.883561234420277, -1.250606574365786 ], [ 36.883691283382127, -1.249729035107424 ], [ 36.883906164234311, -1.248868551043709 ], [ 36.884203807550293, -1.248033408955239 ], [ 36.884581346889412, -1.247231651574868 ], [ 36.88503514640113, -1.246471000137294 ], [ 36.885560835837992, -1.245758780024135 ], [ 36.886153352639958, -1.245101850220785 ], [ 36.886806990685123, -1.244506537263701 ], [ 36.887515455237441, -1.243978574314624 ], [ 36.888271923562414, -1.243523045948135 ], [ 36.889069110627418, -1.243144339184282 ], [ 36.889899339253923, -1.24284610123783 ], [ 36.890754614046486, -1.242631204391291 ], [ 36.891626698386631, -1.24250171832978 ], [ 36.892507193750411, -1.242458890204583 ], [ 36.893387620586076, -1.242503132617376 ], [ 36.894259499972918, -1.242634019641153 ], [ 36.895114435275296, -1.24285029091629 ], [ 36.895944193005271, -1.243149863782628 ], [ 36.896740782115451, -1.243529853330817 ], [ 36.897496530958151, -1.243986600180247 ], [ 36.898204161169851, -1.244515705715969 ], [ 36.898856857769239, -1.245112074445727 ], [ 36.899448334793611, -1.245769963069172 ], [ 36.899972895841437, -1.246483035786832 ], [ 36.900425488937671, -1.247244425316206 ], [ 36.900801755193399, -1.248046799027702 ], [ 36.901098070790781, -1.248882429562947 ], [ 36.901311581888841, -1.24974326925591 ], [ 36.901440232113629, -1.250621027639632 ], [ 36.901482782367736, -1.25150725129214 ] ] ] } },
{ "type": "Feature", "properties": { "name": "Gikomba Market", "lat": -1.2854, "lon": 36.8378, "zone": "Nairobi Central Basin", "zone_summary": "Nairobi Central Basin", "hazard_score_mean": 0.58913123607635498, "hazard_score_max": 0.94685643911361683, "planning_priority_score_mean": 0.53954660892486572, "planning_priority_score_max": 0.93124854564666759, "built_density_mean": 0.82505881786346436, "built_density_max": 1.0, "high_hazard_area_ha": 119.61, "high_hazard_built_area_ha": 119.61 }, "geometry": { "type": "Polygon", "coordinates": [ [ [ 36.846782578105085, -1.285407641306065 ], [ 36.846738581528527, -1.286293761540159 ], [ 36.846608500683281, -1.287171274352578 ], [ 36.846393588277309, -1.288031728657537 ], [ 36.846095914026733, -1.28886683765539 ], [ 36.845718344723657, -1.289668558644927 ], [ 36.845264516626436, -1.29042917048451 ], [ 36.844738800438257, -1.291141347955989 ], [ 36.844146259211421, -1.291798232314648 ], [ 36.843492599582902, -1.292393497346132 ], [ 36.84278411681094, -1.292921410293569 ], [ 36.842027634142156, -1.293376887068282 ], [ 36.841230437093451, -1.293755541212327 ], [ 36.840400203281739, -1.294053726141316 ], [ 36.83954492847765, -1.294268570260563 ], [ 36.838672849595497, -1.294398004616801 ], [ 36.837792365361501, -1.294440782818949 ], [ 36.836911955424398, -1.294396493036494 ], [ 36.836040098687803, -1.29426556195998 ], [ 36.835185191650758, -1.294049250685777 ], [ 36.834355467543269, -1.293749642564896 ], [ 36.833558917035404, -1.293369623133245 ], [ 36.832803211283839, -1.292912852316633 ], [ 36.832095628056663, -1.292383729178707 ], [ 36.831442981648088, -1.291787349551226 ], [ 36.830851557257574, -1.291129456955044 ], [ 36.830327050465471, -1.290416387284577 ], [ 36.829874512387605, -1.289655007788614 ], [ 36.829498301036935, -1.288852650934875 ], [ 36.829202039360275, -1.288017043795767 ], [ 36.828988580354064, -1.287156233634758 ], [ 36.828859979594881, -1.286278510410349 ], [ 36.828817475448886, -1.285392326943653 ], [ 36.828861477150689, -1.284506217518222 ], [ 36.828991560866164, -1.283628715695956 ], [ 36.829206473777063, -1.282768272140295 ], [ 36.829504146147855, -1.281933173237796 ], [ 36.829881711258658, -1.28113146130171 ], [ 36.830335533012239, -1.280370857125757 ], [ 36.830861240949204, -1.279658685633576 ], [ 36.831453772334321, -1.279001805340103 ], [ 36.832107420908834, -1.27840654230347 ], [ 36.83281589183931, -1.277878629203888 ], [ 36.833572362334181, -1.277423150135881 ], [ 36.834369547344387, -1.277044491645523 ], [ 36.835199769715643, -1.276746300484228 ], [ 36.836055034116974, -1.276531448486187 ], [ 36.836927104033826, -1.276402004907442 ], [ 36.837807581084533, -1.276359216493493 ], [ 36.838687985896392, -1.276403495467285 ], [ 36.839559839762757, -1.276534415553647 ], [ 36.840414746294876, -1.27675071607855 ], [ 36.841244472282156, -1.277050314104077 ], [ 36.842041026982287, -1.277430324482276 ], [ 36.842796739077492, -1.277887087635259 ], [ 36.843504330555881, -1.278416204793887 ], [ 36.844156986806176, -1.279012580356182 ], [ 36.844748422250696, -1.279670470957514 ], [ 36.845272940884293, -1.280383540780126 ], [ 36.845725491136065, -1.281144922569384 ], [ 36.846101714525233, -1.281947283769435 ], [ 36.846397987642355, -1.28278289714085 ], [ 36.846611457051324, -1.283643715180653 ], [ 36.846740066775801, -1.284521447627568 ], [ 36.846782578105085, -1.285407641306065 ] ] ] } },
{ "type": "Feature", "properties": { "name": "South C", "lat": -1.3211, "lon": 36.8286, "zone": "Nairobi South Plains", "zone_summary": "Nairobi South Plains", "hazard_score_mean": 0.61019331216812134, "hazard_score_max": 0.93369954824447643, "planning_priority_score_mean": 0.5523257851600647, "planning_priority_score_max": 0.86937803030014038, "built_density_mean": 0.80593317747116089, "built_density_max": 1.0, "high_hazard_area_ha": 162.81, "high_hazard_built_area_ha": 162.81 }, "geometry": { "type": "Polygon", "coordinates": [ [ [ 36.837582649759781, -1.321107886962149 ], [ 36.8375386289446, -1.32199400036592 ], [ 36.837408523398381, -1.322871504051267 ], [ 36.837193586064771, -1.32373194701933 ], [ 36.836895886898105, -1.324567042578498 ], [ 36.836518292928936, -1.32536874815571 ], [ 36.836064440652102, -1.326129342756407 ], [ 36.835538701003053, -1.326841501327081 ], [ 36.834946137259934, -1.327498365303688 ], [ 36.834292456276991, -1.32809360866689 ], [ 36.833583953518989, -1.328621498867343 ], [ 36.832827452426365, -1.329076952034463 ], [ 36.832030238695204, -1.329455581936892 ], [ 36.831199990105141, -1.329753742223171 ], [ 36.830344702571452, -1.329968561535666 ], [ 36.829472613133554, -1.330097971160014 ], [ 36.828592120621849, -1.330140724943578 ], [ 36.827711704767346, -1.330096411291537 ], [ 36.826839844533012, -1.329965457125075 ], [ 36.825984936453793, -1.329749123763908 ], [ 36.825155213771573, -1.329449494772894 ], [ 36.824358667144196, -1.329069455890211 ], [ 36.823602967692047, -1.328612667230339 ], [ 36.822895393123154, -1.328083528030145 ], [ 36.822242757648404, -1.32748713427743 ], [ 36.82165134636157, -1.326829229630352 ], [ 36.821126854715907, -1.326116150100535 ], [ 36.82067433368006, -1.325354763032691 ], [ 36.820298141101091, -1.324552400968232 ], [ 36.820001899742977, -1.323716791030273 ], [ 36.819788462404162, -1.322855980509512 ], [ 36.819659884450054, -1.321978259367912 ], [ 36.819617404024633, -1.321092080406263 ], [ 36.819661430131553, -1.320205977864204 ], [ 36.819791538699249, -1.319328485236583 ], [ 36.820006476667949, -1.318468053097315 ], [ 36.820304174058933, -1.317632967721867 ], [ 36.820681763909867, -1.316831271291946 ], [ 36.821135609884195, -1.316070684450587 ], [ 36.821661341288646, -1.315358531953109 ], [ 36.822253895161921, -1.314701672130167 ], [ 36.82290756502907, -1.314106430841476 ], [ 36.823616055852497, -1.313578540556656 ], [ 36.824372544650409, -1.313123085149537 ], [ 36.825169746199201, -1.312744450937556 ], [ 36.82599998318738, -1.312446284437787 ], [ 36.826855260145543, -1.312231457246644 ], [ 36.827727340440688, -1.312102038381262 ], [ 36.828607825593757, -1.312059274349407 ], [ 36.829488236156521, -1.312103577139734 ], [ 36.830360093369372, -1.31223452024847 ], [ 36.831215000813501, -1.312450842780843 ], [ 36.832044725271416, -1.312750461588136 ], [ 36.832841276017014, -1.313130491323528 ], [ 36.83359698177167, -1.313587272224062 ], [ 36.834304564585175, -1.314116405351061 ], [ 36.834957209929762, -1.314712794950112 ], [ 36.835548632332397, -1.315370697522679 ], [ 36.836073135912628, -1.316083777136863 ], [ 36.836525669243187, -1.316845166444705 ], [ 36.836901874004525, -1.317647532818717 ], [ 36.837198126964516, -1.318483148970165 ], [ 36.837411574878857, -1.319343967369575 ], [ 36.837540161975724, -1.320221697752208 ], [ 36.837582649759781, -1.321107886962149 ] ] ] } },
{ "type": "Feature", "properties": { "name": "South B", "lat": -1.3145, "lon": 36.8452, "zone": "Nairobi South Plains", "zone_summary": "Nairobi South Plains", "hazard_score_mean": 0.59707164764404297, "hazard_score_max": 0.94047075510025024, "planning_priority_score_mean": 0.55785679817199707, "planning_priority_score_max": 0.93420094251632679, "built_density_mean": 0.86431121826171875, "built_density_max": 1.0, "high_hazard_area_ha": 132.93, "high_hazard_built_area_ha": 132.93 }, "geometry": { "type": "Polygon", "coordinates": [ [ [ 36.854182724872345, -1.314507787477237 ], [ 36.854138713381225, -1.315393911129236 ], [ 36.854008616352154, -1.316271425922655 ], [ 36.853793686646853, -1.317131880752839 ], [ 36.853495994146037, -1.317966988815073 ], [ 36.853118405815685, -1.318768707416923 ], [ 36.852664558095718, -1.31952931543931 ], [ 36.852138821876892, -1.320241487700211 ], [ 36.851546260403346, -1.32089836550429 ], [ 36.85089258050634, -1.321493622699377 ], [ 36.850184077639, -1.32202152660303 ], [ 36.849427575241563, -1.322476993212565 ], [ 36.848630359021449, -1.322855636166814 ], [ 36.847800106781079, -1.323153808988055 ], [ 36.846944814469801, -1.323368640197177 ], [ 36.846072719172085, -1.323498060964318 ], [ 36.845192219773999, -1.323540825028483 ], [ 36.844311796072304, -1.323496520694704 ], [ 36.843439927105216, -1.323365574793241 ], [ 36.842585009491671, -1.323149248563035 ], [ 36.841755276565515, -1.322849625499138 ], [ 36.840958719083659, -1.322469591281601 ], [ 36.840203008271608, -1.322012805979067 ], [ 36.839495421947589, -1.321483668795325 ], [ 36.838842774436714, -1.320887275698204 ], [ 36.838251350949747, -1.320229370339214 ], [ 36.837726847058669, -1.319516288736727 ], [ 36.83727431385126, -1.318754898255544 ], [ 36.836898109293067, -1.317952531470301 ], [ 36.8366018562646, -1.317116915550146 ], [ 36.836388407677781, -1.316256097844147 ], [ 36.836259819007303, -1.315378368384389 ], [ 36.836217328501114, -1.314492180052821 ], [ 36.836261345260503, -1.313606067180459 ], [ 36.836391445304301, -1.312728563362818 ], [ 36.836606375654881, -1.31186811928276 ], [ 36.836904066406774, -1.31103302133188 ], [ 36.837281650661183, -1.310231311814036 ], [ 36.837735492134833, -1.309470711499216 ], [ 36.83826122017701, -1.308758545273245 ], [ 36.838853771857806, -1.308101671599539 ], [ 36.839507440722272, -1.30750641647154 ], [ 36.840215931741277, -1.306978512492255 ], [ 36.840972421929891, -1.306523043667273 ], [ 36.841769626049896, -1.3061443964429 ], [ 36.842599866763848, -1.305846217460956 ], [ 36.843455148565361, -1.305631378437308 ], [ 36.844327234773857, -1.30550194850212 ], [ 36.845207726852543, -1.305459174268715 ], [ 36.846088145285954, -1.305503467822858 ], [ 36.84696001123833, -1.305634402748541 ], [ 36.847814928206596, -1.305850718228621 ], [ 36.848644662881682, -1.306150331181165 ], [ 36.849441224439474, -1.306530356314695 ], [ 36.850196941497842, -1.306987133909662 ], [ 36.850904535998509, -1.307516265058475 ], [ 36.851557193302142, -1.308112654025223 ], [ 36.852148627821641, -1.308770557317124 ], [ 36.852673143561063, -1.309483638995244 ], [ 36.853125688977286, -1.310245031691875 ], [ 36.853501905635589, -1.311047402747241 ], [ 36.853798170190473, -1.311883024828099 ], [ 36.854011629287058, -1.312743850348626 ], [ 36.854140227046756, -1.313621588976429 ], [ 36.854182724872345, -1.314507787477237 ] ] ] } },
{ "type": "Feature", "properties": { "name": "Kibera", "lat": -1.3133, "lon": 36.7885, "zone": "Nairobi South Plains", "zone_summary": "Nairobi South Plains", "hazard_score_mean": 0.57689988613128662, "hazard_score_max": 0.95938736200332642, "planning_priority_score_mean": 0.51539558172225952, "planning_priority_score_max": 0.90723842382431041, "built_density_mean": 0.77455043792724609, "built_density_max": 1.0, "high_hazard_area_ha": 116.28, "high_hazard_built_area_ha": 115.11 }, "geometry": { "type": "Polygon", "coordinates": [ [ [ 36.797482380134603, -1.313307985427718 ], [ 36.797438351014321, -1.31419407461734 ], [ 36.797308239826172, -1.315071553369766 ], [ 36.797093299569504, -1.315931970923639 ], [ 36.796795600228563, -1.316767040829749 ], [ 36.796418008837819, -1.317568720760085 ], [ 36.795964161869762, -1.318329289965506 ], [ 36.795438430211455, -1.31904142363599 ], [ 36.794845877066926, -1.31969826344674 ], [ 36.794192209191174, -1.320293483611145 ], [ 36.793483721925476, -1.320821351803827 ], [ 36.792727238563593, -1.321276784367225 ], [ 36.791930044633027, -1.321655395269975 ], [ 36.791099817724572, -1.321953538345593 ], [ 36.790244553546039, -1.322168342404543 ], [ 36.789372488912726, -1.32229773888197 ], [ 36.78849202241647, -1.322340481754624 ], [ 36.787611633537452, -1.32229615953559 ], [ 36.786739800978033, -1.322165199231329 ], [ 36.785884921005277, -1.321948862223282 ], [ 36.785055226588604, -1.321649232113783 ], [ 36.784258708111452, -1.321269194653781 ], [ 36.783503036420569, -1.320812409945631 ], [ 36.782795488953901, -1.320283277189227 ], [ 36.782142879658515, -1.319686892310868 ], [ 36.781551493373208, -1.319028998883251 ], [ 36.781027025307736, -1.318315932809402 ], [ 36.780574526201129, -1.317554561303368 ], [ 36.780198353687062, -1.316752216755121 ], [ 36.779902130334449, -1.315916626117092 ], [ 36.779688708766997, -1.315055836491759 ], [ 36.77956014419739, -1.314178137637239 ], [ 36.779517674640424, -1.313291982136915 ], [ 36.779561708995352, -1.312405904001652 ], [ 36.77969182311201, -1.311528436488474 ], [ 36.779906763878515, -1.310668029926816 ], [ 36.780204461291021, -1.309832970343465 ], [ 36.780582048389164, -1.309031299669734 ], [ 36.781035888865411, -1.308270738299038 ], [ 36.781561612082193, -1.307558610740315 ], [ 36.782154155159873, -1.30690177508349 ], [ 36.782807811730308, -1.306306556955541 ], [ 36.783516286886702, -1.305778688603587 ], [ 36.784272757800636, -1.305323253691308 ], [ 36.785069939422961, -1.304944638340335 ], [ 36.785900154635904, -1.304646488888096 ], [ 36.786755408181101, -1.304431676769176 ], [ 36.787627463651866, -1.304302270858169 ], [ 36.788507922808499, -1.304259517540853 ], [ 36.789388306452864, -1.304303828705527 ], [ 36.790260136083774, -1.30443477777054 ], [ 36.791115015546701, -1.304651103786372 ], [ 36.791944711891816, -1.304950723573112 ], [ 36.79274123466157, -1.305330751776509 ], [ 36.793496912844262, -1.305787528649934 ], [ 36.794204468752447, -1.306316655294578 ], [ 36.794857088114696, -1.306913036019013 ], [ 36.795448485705307, -1.307570927410173 ], [ 36.795972965880082, -1.308283993643295 ], [ 36.796425477434646, -1.309045367498211 ], [ 36.796801662256946, -1.309847716494679 ], [ 36.797097897305072, -1.310683313509329 ], [ 36.797311329505867, -1.311544111194634 ], [ 36.797439903238015, -1.312421819482732 ], [ 36.797482380134603, -1.313307985427718 ] ] ] } }
]
}
