{
"type": "FeatureCollection",
"name": "south_c_catchment",
"crs": { "type": "name", "properties": { "name": "urn:ogc:def:crs:OGC:1.3:CRS84" } },
"features": [
{ "type": "Feature", "properties": { "name": "South C", "method": "Priority-Flood D8; outlet snapped to maximum accumulation", "area_km2": 3.9933, "boundary_truncated": false }, "geometry": { "type": "Polygon", "coordinates": [ [ [ 36.813306491183809, -1.314965081979883 ], [ 36.813306018824463, -1.31550751997692 ], [ 36.811958642781754, -1.315506330826576 ], [ 36.811958406383674, -1.315777549578892 ], [ 36.81168893129238, -1.315777311612027 ], [ 36.811688694816453, -1.316048530314641 ], [ 36.811419219744877, -1.316048292269453 ], [ 36.811418746588544, -1.31659072957463 ], [ 36.810071371671867, -1.316589538418943 ], [ 36.810071134875109, -1.316860756825117 ], [ 36.809801660009121, -1.316860518457069 ], [ 36.809801186210969, -1.317402955169291 ], [ 36.80953171133563, -1.317402716673737 ], [ 36.809531000184911, -1.318216371589958 ], [ 36.809261525271076, -1.318216132917752 ], [ 36.809261288094056, -1.318487351172764 ], [ 36.80953076303701, -1.318487589894093 ], [ 36.809530051300321, -1.319301244802684 ], [ 36.809799526379486, -1.319301483642054 ], [ 36.80979928906541, -1.319572701992762 ], [ 36.809260338897623, -1.319572224186456 ], [ 36.809259864006393, -1.320114660689485 ], [ 36.808990388937453, -1.320114421644075 ], [ 36.808990151389416, -1.320385639845507 ], [ 36.808720676340158, -1.320385400721618 ], [ 36.808720438714118, -1.320656618873277 ], [ 36.808450963684543, -1.320656379670896 ], [ 36.808450488227578, -1.321198815874022 ], [ 36.808181013188502, -1.321198576543991 ], [ 36.808180775357556, -1.321469794595452 ], [ 36.807911300338162, -1.321469555186898 ], [ 36.807911062429163, -1.321740773188569 ], [ 36.807102637576641, -1.321740054639163 ], [ 36.807102399531189, -1.322011272492702 ], [ 36.804677127351262, -1.322009114815105 ], [ 36.804677365659465, -1.321737897404377 ], [ 36.804138416882708, -1.32173741769568 ], [ 36.804138178516112, -1.32200863500794 ], [ 36.80359922987676, -1.322008155083227 ], [ 36.803598991402815, -1.322279372296356 ], [ 36.803329517127381, -1.322279132240665 ], [ 36.803329755630529, -1.322007915076791 ], [ 36.802251859135339, -1.32200695475718 ], [ 36.802251143128508, -1.322820605655642 ], [ 36.802520617266453, -1.322820845927463 ], [ 36.80252037852874, -1.32309206294162 ], [ 36.802789852744887, -1.32309230323331 ], [ 36.802789375180964, -1.323634737358258 ], [ 36.803058849504552, -1.323634977719072 ], [ 36.803058610678356, -1.323906194829855 ], [ 36.803328085080153, -1.323906435210509 ], [ 36.803328323877118, -1.323635218050464 ], [ 36.80467569647432, -1.32363641926608 ], [ 36.804675935076155, -1.323365201859179 ], [ 36.805214884399192, -1.32336568204102 ], [ 36.80521392993213, -1.324450552058569 ], [ 36.805483404783999, -1.324450792302217 ], [ 36.805483166074175, -1.324722009854221 ], [ 36.806830541213479, -1.324723210876821 ], [ 36.806830302601035, -1.324994428674161 ], [ 36.807369253057558, -1.324994908975418 ], [ 36.807369491611475, -1.32472369107973 ], [ 36.80790844220499, -1.324724171164849 ], [ 36.807908680651522, -1.324452953170197 ], [ 36.808986582307874, -1.324453912790492 ], [ 36.808986343978368, -1.324725130981719 ], [ 36.810333722294004, -1.324726330090238 ], [ 36.810333960477237, -1.324455111653426 ], [ 36.810872912086715, -1.324455590992509 ], [ 36.810873150162628, -1.324184372456867 ], [ 36.811142626011318, -1.324184612033159 ], [ 36.811142387964651, -1.324455830617888 ], [ 36.812489768086152, -1.324457028303157 ], [ 36.812489530136965, -1.324728247132589 ], [ 36.81275900633684, -1.324728486630368 ], [ 36.812758530350699, -1.325270924385418 ], [ 36.813297483013777, -1.325271403488798 ], [ 36.813297245006112, -1.325542622463447 ], [ 36.813566721440054, -1.325542862019979 ], [ 36.81356648341292, -1.325814081043023 ], [ 36.81383595992488, -1.325814320619115 ], [ 36.813835721878291, -1.326085539690545 ], [ 36.814913628530554, -1.326086497896239 ], [ 36.814913866459996, -1.325815278628764 ], [ 36.815183343215566, -1.325815518057496 ], [ 36.815183105315413, -1.326086737373968 ], [ 36.816530489970141, -1.326087934320434 ], [ 36.816530252167738, -1.326359153881156 ], [ 36.816799729274031, -1.326359393230974 ], [ 36.816799491452251, -1.326630612840018 ], [ 36.817338445869424, -1.326631091549103 ], [ 36.817338208057585, -1.32690231125541 ], [ 36.817877162727996, -1.32690278994441 ], [ 36.817876924926118, -1.327174009747955 ], [ 36.818146402363602, -1.327174249097141 ], [ 36.818145688754079, -1.327987908650727 ], [ 36.818954121622241, -1.327988626961527 ], [ 36.818954359452739, -1.327717406964218 ], [ 36.820301748392041, -1.327718603313999 ], [ 36.820301986027303, -1.327447383071581 ], [ 36.820571463931643, -1.327447622204117 ], [ 36.820571226325697, -1.327718842495411 ], [ 36.820840704307948, -1.327719081647307 ], [ 36.820840466682746, -1.32799030198683 ], [ 36.822726814123634, -1.327991975565603 ], [ 36.822726576655192, -1.328263196246405 ], [ 36.82326553356247, -1.328263674243714 ], [ 36.823264821042017, -1.329077336575191 ], [ 36.823803778319473, -1.329077814747229 ], [ 36.823803065538478, -1.329891477365781 ], [ 36.824072544338065, -1.329891716553874 ], [ 36.824072306676754, -1.330162937474241 ], [ 36.824341785554232, -1.330163176681561 ], [ 36.824342023186176, -1.329891955712403 ], [ 36.824611502082774, -1.329892194841369 ], [ 36.824611739636843, -1.329620973822785 ], [ 36.82515069751679, -1.329621451894473 ], [ 36.825150460021462, -1.32989267301061 ], [ 36.825958897293106, -1.329893390042743 ], [ 36.825959846631164, -1.328808504989221 ], [ 36.826229325701199, -1.328808743745808 ], [ 36.826229562885203, -1.328537522432078 ], [ 36.826499041974358, -1.328537761110383 ], [ 36.8264988048197, -1.328808982472856 ], [ 36.828385160005539, -1.328810652735077 ], [ 36.828384685961844, -1.329353096140167 ], [ 36.82946260451093, -1.329354050315331 ], [ 36.829462367533928, -1.329625272211659 ], [ 36.830270807041927, -1.329625987678729 ], [ 36.830271043930836, -1.329354765636407 ], [ 36.830540523834209, -1.329355004017662 ], [ 36.830540760645391, -1.329083781926047 ], [ 36.830810240567779, -1.329084020229103 ], [ 36.830810003785956, -1.329355242369364 ], [ 36.831618443931312, -1.329355957247158 ], [ 36.831618917270447, -1.328813512674189 ], [ 36.832696837906127, -1.328814465041942 ], [ 36.832696601378139, -1.329085687523201 ], [ 36.832966081687211, -1.329085925589887 ], [ 36.832965845140272, -1.329357148119103 ], [ 36.833774286445411, -1.329357862287641 ], [ 36.833774522904278, -1.329086639612666 ], [ 36.834582964555963, -1.329087353369528 ], [ 36.83458320087847, -1.328816130548209 ], [ 36.835391642876552, -1.328816843893502 ], [ 36.835391879062747, -1.328545620925892 ], [ 36.836200321407084, -1.328546333859725 ], [ 36.836200557456998, -1.32827511074588 ], [ 36.835931076656649, -1.32827487317933 ], [ 36.835931784604959, -1.327461203979538 ], [ 36.836201265317321, -1.327461441400511 ], [ 36.83620150117428, -1.327190218284109 ], [ 36.837279424388761, -1.327191167478851 ], [ 36.837278952861169, -1.327733614099102 ], [ 36.837817914874996, -1.327734088713416 ], [ 36.837818150604257, -1.327462865306626 ], [ 36.838626593898518, -1.32746357686129 ], [ 36.83862706503654, -1.326921129754925 ], [ 36.838896546172371, -1.326921366783861 ], [ 36.83889748775303, -1.325836472369607 ], [ 36.839166968819853, -1.325836709175206 ], [ 36.839167204065284, -1.325565485521587 ], [ 36.838358761097204, -1.325564775161763 ], [ 36.838359937040792, -1.324208657611082 ], [ 36.838090456294118, -1.324208421007924 ], [ 36.838090926392724, -1.323665974080144 ], [ 36.838360407080899, -1.323666210586347 ], [ 36.838360876928256, -1.323123763559062 ], [ 36.837821915717015, -1.323123290711152 ], [ 36.837822150626849, -1.322852067293516 ], [ 36.837552670122747, -1.322851830873929 ], [ 36.83755360939692, -1.321766937390974 ], [ 36.837014648766996, -1.321766464851564 ], [ 36.837014883523409, -1.321495241576231 ], [ 36.836206443027756, -1.321494532692278 ], [ 36.836206912571015, -1.320952086430785 ], [ 36.836476392629635, -1.320952322657775 ], [ 36.83647733102066, -1.319867429933081 ], [ 36.836207851078697, -1.319867193900169 ], [ 36.83620855445298, -1.319053524495534 ], [ 36.835939074646689, -1.319053288578858 ], [ 36.835939309037435, -1.318782065491235 ], [ 36.835400349627847, -1.31878159366698 ], [ 36.835400818381117, -1.318239147683969 ], [ 36.835131338806939, -1.318238911824952 ], [ 36.835132509991176, -1.316882797099035 ], [ 36.834863030610769, -1.316882561453461 ], [ 36.834863264731922, -1.316611338554925 ], [ 36.834593785428865, -1.316611102928632 ], [ 36.834593317080127, -1.31715354862796 ], [ 36.833784879286114, -1.317152841282061 ], [ 36.833784644952054, -1.31742406398507 ], [ 36.833245686605956, -1.317423592177566 ], [ 36.8332454521654, -1.317694814782777 ], [ 36.832975973035701, -1.317694578786502 ], [ 36.832977144900923, -1.31633846599707 ], [ 36.831629750704415, -1.316337286791551 ], [ 36.831629985077889, -1.316066064474812 ], [ 36.830552070707029, -1.316065120778216 ], [ 36.830551836217261, -1.316336342900407 ], [ 36.830282357716364, -1.316336106854464 ], [ 36.830282123149161, -1.316607328927369 ], [ 36.830012644667555, -1.316607092803506 ], [ 36.830012410022896, -1.316878314827119 ], [ 36.828934496463937, -1.316877369844286 ], [ 36.828934261654553, -1.317148591672572 ], [ 36.828395305107257, -1.317148118908125 ], [ 36.828395539974821, -1.316876897177222 ], [ 36.825161805108273, -1.316874058715788 ], [ 36.825161334626515, -1.317416501007355 ], [ 36.824891856977779, -1.317416264181074 ], [ 36.824892092271995, -1.317145043084381 ], [ 36.824622614700836, -1.317144806277592 ], [ 36.824623085201971, -1.316602364179859 ], [ 36.823814652953999, -1.316601653876557 ], [ 36.823814417640435, -1.316872874779369 ], [ 36.824083895037006, -1.316873111625201 ], [ 36.824083659704009, -1.317144332576174 ], [ 36.823814182278355, -1.317144095681545 ], [ 36.823813946867766, -1.317415316583087 ], [ 36.823544469461524, -1.317415079610376 ], [ 36.823544233973323, -1.31768630046248 ], [ 36.822735801958444, -1.317685589222183 ], [ 36.822735566334394, -1.317956809927208 ], [ 36.822466089064058, -1.317956572739698 ], [ 36.822465853362367, -1.31822779339526 ], [ 36.821926898909105, -1.318227318834674 ], [ 36.821927134669018, -1.317956098276783 ], [ 36.821657657544328, -1.317955861001378 ], [ 36.821657893284794, -1.317684640491698 ], [ 36.821388416237774, -1.317684403235847 ], [ 36.821388887631223, -1.317141962312284 ], [ 36.820849933799266, -1.317141487908147 ], [ 36.820850169481325, -1.316870267543134 ], [ 36.819502785897093, -1.316869081264802 ], [ 36.819503021675985, -1.31659786114356 ], [ 36.819233545134018, -1.316597623848972 ], [ 36.819233780893377, -1.316326403775996 ], [ 36.818964304429109, -1.316326166501046 ], [ 36.818964540168921, -1.31605494647634 ], [ 36.818695063782343, -1.31605470922104 ], [ 36.818694828013456, -1.316325929196833 ], [ 36.818425351646425, -1.31632569186336 ], [ 36.81842511579984, -1.316596911789603 ], [ 36.817077734548924, -1.316595724438637 ], [ 36.8170779705409, -1.316324504757073 ], [ 36.816539018439279, -1.316324029709728 ], [ 36.816538782389159, -1.316595249293379 ], [ 36.816269306382274, -1.316595011676849 ], [ 36.8162690702544, -1.3168662312109 ], [ 36.815730118328524, -1.316865755792089 ], [ 36.815729882093791, -1.317136975227555 ], [ 36.815460406174793, -1.317136737425256 ], [ 36.815460642438616, -1.316865518038773 ], [ 36.815191166597415, -1.316865280256184 ], [ 36.81519187518392, -1.316051622239898 ], [ 36.814652923822088, -1.316051146880895 ], [ 36.814653396085802, -1.315508708396193 ], [ 36.814383920536081, -1.315508470770825 ], [ 36.814384392663044, -1.314966032381603 ], [ 36.813306491183809, -1.314965081979883 ] ] ] } }
]
}
